0 SL-16 DEB
1 22363U 92093BC  13282.56488719  .00000207  00000-0  18126-3 0   297
2 22363 071.0342 086.5383 0146226 060.6899 002.9836 13.91526172 53325
0 SL-16 DEB
1 22363U 92093BC  13287.10398384  .00000187  00000-0  16728-3 0   316
2 22363 071.0352 077.3824 0146312 053.9274 061.6740 13.91528741 53951
0 SL-16 DEB
1 22363U 92093BC  13289.53921006  .00000204  00000-0  17924-3 0   328
2 22363 071.0357 072.4706 0146374 050.2936 021.0156 13.91530761 54298
0 SL-16 DEB
1 22363U 92093BC  13291.77720705  .00000299  00000-0  24788-3 0   331
2 22363 071.0360 067.9568 0146466 046.9628 072.3347 13.91531716 54606
0 SL-16 DEB
1 22363U 92093BC  13294.13660087  .00000321  00000-0  26426-3 0   348
2 22363 071.0360 063.1980 0146513 043.4301 011.8292 13.91533727 54932
0 SL-16 DEB
1 22363U 92093BC  13296.15074723  .00000351  00000-0  28583-3 0   358
2 22363 071.0361 059.1354 0146603 040.4231 021.7922 13.91535627 55215
